[{"OBJECT_NAME":"STARLINK-32194","OBJECT_ID":"2024-133Q","EPOCH":"2026-03-09T21:48:13.315680","MEAN_MOTION":15.3019564,"ECCENTRICITY":0.00012807,"INCLINATION":53.1585,"RA_OF_ASC_NODE":296.0588,"ARG_OF_PERICENTER":91.1943,"MEAN_ANOMALY":268.9205,"EPHEMERIS_TYPE":0,"CLASSIFICATION_TYPE":"U","NORAD_CAT_ID":60315,"ELEMENT_SET_NO":999,"REV_AT_EPOCH":9167,"BSTAR":0.00012788718,"MEAN_MOTION_DOT":3.43e-5,"MEAN_MOTION_DDOT":0},{"OBJECT_NAME":"TEVEL2-9","OBJECT_ID":"2025-052AD","EPOCH":"2026-03-09T16:51:18.321696","MEAN_MOTION":15.28633834,"ECCENTRICITY":0.000799,"INCLINATION":97.4057,"RA_OF_ASC_NODE":324.3929,"ARG_OF_PERICENTER":124.2475,"MEAN_ANOMALY":235.9522,"EPHEMERIS_TYPE":0,"CLASSIFICATION_TYPE":"U","NORAD_CAT_ID":63237,"ELEMENT_SET_NO":999,"REV_AT_EPOCH":5481,"BSTAR":0.00067240159,"MEAN_MOTION_DOT":0.00018694,"MEAN_MOTION_DDOT":0}]
